NORAD_CAT_ID,OBJECT_NAME,OBJECT_TYPE,EPOCH,MEAN_MOTION,ECCENTRICITY,INCLINATION,RA_OF_ASC_NODE,ARG_OF_PERICENTER,MEAN_ANOMALY,BSTAR,MEAN_MOTION_DOT,MEAN_MOTION_DDOT,TLE_LINE0,TLE_LINE1,TLE_LINE2,SEMIMAJOR_AXIS,PERIOD,APOGEE,PERIGEE,DECAYED
55941.0,STARLINK-5914,PAYLOAD,2023-05-21 18:41:12,15.69939644,0.0003743,69.9978,358.2932,278.8721,81.2051,2.258e-05,2.505e-05,0.0,0 STARLINK-5914,1 55941U 23037AD  23141.77861744  .00002505  00000-0  22580-4 0  9997,2 55941  69.9978 358.2932 0003743 278.8721  81.2051 15.69939644 10394,6737.207,91.723,361.593,356.55,0.0
55941.0,STARLINK-5914,PAYLOAD,2023-05-21 23:16:27,15.69942818,0.0003586,69.9974,357.7547,275.8391,84.2396,2.505e-05,2.803e-05,0.0,0 STARLINK-5914,1 55941U 23037AD  23141.96976397  .00002803  00000-0  25050-4 0  9995,2 55941  69.9974 357.7547 0003586 275.8391  84.2396 15.69942818 10764,6737.198,91.723,361.479,356.647,0.0
55941.0,STARLINK-5914,PAYLOAD,2023-05-22 16:05:44,15.69927832,0.0003965,69.998,355.7851,274.5989,85.4754,1.5552e-05,1.658e-05,0.0,0 STARLINK-5914,1 55941U 23037AD  23142.67065565  .00001658  00000-0  15552-4 0  9993,2 55941  69.9980 355.7851 0003965 274.5989  85.4754 15.69927832 10879,6737.24,91.724,361.777,356.434,0.0
55941.0,STARLINK-5914,PAYLOAD,2023-05-22 19:09:15,15.699247,0.0004202,69.9993,355.4288,277.3215,82.7503,1.0617e-05,1.064e-05,0.0,0 STARLINK-5914,1 55941U 23037AD  23142.79809162  .00001064  00000-0  10617-4 0  9993,2 55941  69.9993 355.4288 0004202 277.3215  82.7503 15.69924700 10550,6737.249,91.724,361.945,356.283,0.0
55941.0,STARLINK-5914,PAYLOAD,2023-05-22 23:44:31,15.69913855,0.0003572,69.9977,354.8889,272.9753,87.1034,6.0265e-06,5.12e-06,0.0,0 STARLINK-5914,1 55941U 23037AD  23142.98925001  .00000512  00000-0  60265-5 0  9997,2 55941  69.9977 354.8889 0003572 272.9753  87.1034 15.69913855 10927,6737.28,91.725,361.552,356.739,0.0
55941.0,STARLINK-5914,PAYLOAD,2023-05-23 16:33:46,15.69933405,0.0004048,69.9979,352.9195,278.7151,81.3586,-3.456e-06,-6.29e-06,0.0,0 STARLINK-5914,1 55941U 23037AD  23143.69012608 -.00000629  00000-0 -34560-5 0  9996,2 55941  69.9979 352.9195 0004048 278.7151  81.3586 15.69933405 11037,6737.225,91.724,361.817,356.362,0.0
55941.0,STARLINK-5914,PAYLOAD,2023-05-24 00:12:32,15.6992575,0.0002898,69.9954,352.0217,285.3124,74.7751,-2.5516e-06,-5.19e-06,0.0,0 STARLINK-5914,1 55941U 23037AD  23144.00871419 -.00000519  00000-0 -25516-5 0  9994,2 55941  69.9954 352.0217 0002898 285.3124  74.7751 15.69925750 11080,6737.246,91.724,361.064,357.159,0.0
55941.0,STARLINK-5914,PAYLOAD,2023-05-24 15:30:03,15.69907882,0.0003228,69.9946,350.2285,268.0861,91.9965,3.8664e-05,4.435e-05,0.0,0 STARLINK-5914,1 55941U 23037AD  23144.64587959  .00004435  00000-0  38664-4 0  9993,2 55941  69.9946 350.2285 0003228 268.0861  91.9965 15.69907882 10847,6737.298,91.725,361.337,356.988,0.0
55941.0,STARLINK-5914,PAYLOAD,2023-05-25 14:26:20,15.69925086,0.0003496,69.9971,347.5467,274.3464,85.7332,3.4373e-06,2e-06,0.0,0 STARLINK-5914,1 55941U 23037AD  23145.60163030  .00000200  00000-0  34373-5 0  9990,2 55941  69.9971 347.5467 0003496 274.3464  85.7332 15.69925086 10993,6737.248,91.724,361.469,356.758,0.0
55941.0,STARLINK-5914,PAYLOAD,2023-05-25 17:29:51,15.69924107,0.0003842,69.9969,347.188,280.1634,79.9128,6.5295e-06,5.72e-06,0.0,0 STARLINK-5914,1 55941U 23037AD  23145.72906357  .00000572  00000-0  65295-5 0  9999,2 55941  69.9969 347.1880 0003842 280.1634  79.9128 15.69924107 11356,6737.251,91.724,361.705,356.528,0.0
55941.0,STARLINK-5914,PAYLOAD,2023-05-25 22:05:06,15.69925442,0.0003532,69.9968,346.6506,273.898,86.1812,2.8989e-06,1.36e-06,0.0,0 STARLINK-5914,1 55941U 23037AD  23145.92021310  .00000136  00000-0  28989-5 0  9993,2 55941  69.9968 346.6506 0003532 273.8980  86.1812 15.69925442 11042,6737.247,91.724,361.492,356.733,0.0
55941.0,STARLINK-5914,PAYLOAD,2023-05-26 13:22:37,15.69918364,0.0003727,69.9966,344.8587,279.0552,81.0222,8.3026e-06,7.85e-06,0.0,0 STARLINK-5914,1 55941U 23037AD  23146.55738392  .00000785  00000-0  83026-5 0  9991,2 55941  69.9966 344.8587 0003727 279.0552  81.0222 15.69918364 11143,6737.268,91.725,361.644,356.622,0.0
55941.0,STARLINK-5914,PAYLOAD,2023-05-26 21:01:23,15.69924949,0.0003648,69.9967,343.9624,278.5254,81.5529,1.4616e-05,1.545e-05,0.0,0 STARLINK-5914,1 55941U 23037AD  23146.87596254  .00001545  00000-0  14616-4 0  9998,2 55941  69.9967 343.9624 0003648 278.5254  81.5529 15.69924949 11197,6737.249,91.724,361.571,356.656,0.0
55941.0,STARLINK-5914,PAYLOAD,2023-05-26 22:33:08,15.69925064,0.0003648,69.9967,343.7833,278.5212,81.557,1.4599e-05,1.543e-05,0.0,0 STARLINK-5914,1 55941U 23037AD  23146.93967927  .00001543  00000-0  14599-4 0  9992,2 55941  69.9967 343.7833 0003648 278.5212  81.5570 15.69925064 11545,6737.248,91.724,361.571,356.656,0.0
55941.0,STARLINK-5914,PAYLOAD,2023-05-27 15:22:26,15.69825993,0.0003079,69.9966,341.8117,281.1571,78.9278,0.00018124,0.00021547,0.0,0 STARLINK-5914,1 55941U 23037AD  23147.64058644  .00021547  00000-0  18124-3 0  9991,2 55941  69.9966 341.8117 0003079 281.1571  78.9278 15.69825993 11651,6737.532,91.73,361.471,357.322,0.0
55941.0,STARLINK-5914,PAYLOAD,2023-05-27 21:29:26,15.69894642,0.0003274,69.9966,341.0949,279.0501,81.0324,6.17e-05,7.203e-05,0.0,0 STARLINK-5914,1 55941U 23037AD  23147.89544322  .00007203  00000-0  61700-4 0  9993,2 55941  69.9966 341.0949 0003274 279.0501  81.0324 15.69894642 11353,6737.335,91.726,361.406,356.995,0.0
55941.0,STARLINK-5914,PAYLOAD,2023-05-27 23:01:09,15.69948853,0.000358,69.9964,340.9158,278.354,81.725,-4.454e-05,-5.571e-05,0.0,0 STARLINK-5914,1 55941U 23037AD  23147.95914217 -.00005571  00000-0 -44540-4 0  9995,2 55941  69.9964 340.9158 0003580 278.3540  81.7250 15.69948853 11704,6737.18,91.723,361.457,356.633,0.0
55941.0,STARLINK-5914,PAYLOAD,2023-05-28 15:50:26,15.69929765,0.0003496,69.9967,338.9451,274.7154,85.3642,8.3785e-06,7.95e-06,0.0,0 STARLINK-5914,1 55941U 23037AD  23148.66003009  .00000795  00000-0  83785-5 0  9998,2 55941  69.9967 338.9451 0003496 274.7154  85.3642 15.69929765 11815,6737.235,91.724,361.455,356.745,0.0
55941.0,STARLINK-5914,PAYLOAD,2023-05-28 20:25:41,15.69932187,0.0003471,69.9966,338.4076,274.9064,85.1736,1.1021e-05,1.113e-05,0.0,0 STARLINK-5914,1 55941U 23037AD  23148.85117760  .00001113  00000-0  11021-4 0  9997,2 55941  69.9966 338.4076 0003471 274.9064  85.1736 15.69932187 11507,6737.228,91.724,361.432,356.755,0.0
55941.0,STARLINK-5914,PAYLOAD,2023-05-29 05:36:13,15.69911711,0.0003435,69.9969,337.3333,273.502,86.5783,-3.7859e-06,-6.68e-06,0.0,0 STARLINK-5914,1 55941U 23037AD  23149.23349395 -.00000668  00000-0 -37859-5 0  9995,2 55941  69.9969 337.3333 0003435 273.5020  86.5783 15.69911711 11902,6737.287,91.725,361.466,356.837,0.0
55941.0,STARLINK-5914,PAYLOAD,2023-05-29 14:46:44,15.69917274,0.0003572,69.997,336.2574,275.1528,84.926,8.1254e-07,-1.15e-06,0.0,0 STARLINK-5914,1 55941U 23037AD  23149.61579110 -.00000115  00000-0  81254-6 0  9992,2 55941  69.9970 336.2574 0003572 275.1528  84.9260 15.69917274 11623,6737.271,91.725,361.542,356.729,0.0
55941.0,STARLINK-5914,PAYLOAD,2023-05-29 16:18:29,15.69920214,0.0003377,69.9975,336.0777,278.3349,81.7464,-1.0198e-06,-3.35e-06,0.0,0 STARLINK-5914,1 55941U 23037AD  23149.67950714 -.00000335  00000-0 -10198-5 0  9994,2 55941  69.9975 336.0777 0003377 278.3349  81.7464 15.69920214 11977,6737.262,91.724,361.402,356.852,0.0
55941.0,STARLINK-5914,PAYLOAD,2023-05-29 20:53:44,15.69926443,0.0002842,69.9982,335.5425,275.6212,84.466,1.4569e-05,1.54e-05,0.0,0 STARLINK-5914,1 55941U 23037AD  23149.87065129  .00001540  00000-0  14569-4 0  9995,2 55941  69.9982 335.5425 0002842 275.6212  84.4660 15.69926443 11668,6737.244,91.724,361.024,357.195,0.0
55941.0,STARLINK-5914,PAYLOAD,2023-05-29 22:25:29,15.69930215,0.0002425,69.9976,335.3586,271.5297,88.5621,4.698e-06,3.53e-06,0.0,0 STARLINK-5914,1 55941U 23037AD  23149.93436640  .00000353  00000-0  46980-5 0  9996,2 55941  69.9976 335.3586 0002425 271.5297  88.5621 15.69930215 12016,6737.234,91.724,360.732,357.465,0.0
55941.0,STARLINK-5914,PAYLOAD,2023-05-30 06:04:15,15.69921213,0.0003433,69.9973,334.467,272.8531,87.2271,7.3078e-06,6.66e-06,0.0,0 STARLINK-5914,1 55941U 23037AD  23150.25295467  .00000666  00000-0  73078-5 0  9998,2 55941  69.9973 334.4670 0003433 272.8531  87.2271 15.69921213 12062,6737.259,91.724,361.437,356.812,0.0
55941.0,STARLINK-5914,PAYLOAD,2023-05-30 12:11:15,15.69925388,0.0003577,69.9971,333.75,272.2371,87.8415,4.333e-06,3.08e-06,0.0,0 STARLINK-5914,1 55941U 23037AD  23150.50781847  .00000308  00000-0  43330-5 0  9999,2 55941  69.9971 333.7500 0003577 272.2371  87.8415 15.69925388 11768,6737.247,91.724,361.522,356.703,0.0
55941.0,STARLINK-5914,PAYLOAD,2023-05-30 15:14:45,15.69926805,0.0003499,69.9974,333.3912,271.5592,88.5203,8.3129e-06,7.87e-06,0.0,0 STARLINK-5914,1 55941U 23037AD  23150.63524939  .00000787  00000-0  83129-5 0  9991,2 55941  69.9974 333.3912 0003499 271.5592  88.5203 15.69926805 12123,6737.243,91.724,361.466,356.751,0.0
55941.0,STARLINK-5914,PAYLOAD,2023-05-30 21:21:45,15.69928231,0.000361,69.9972,332.6748,271.7335,88.3447,7.7185e-06,7.15e-06,0.0,0 STARLINK-5914,1 55941U 23037AD  23150.89011559  .00000715  00000-0  77185-5 0  9994,2 55941  69.9972 332.6748 0003610 271.7335  88.3447 15.69928231 11821,6737.239,91.724,361.536,356.672,0.0
55941.0,STARLINK-5914,PAYLOAD,2023-05-31 05:00:32,15.69915749,0.0003598,69.9974,331.7788,274.3127,85.7657,1.6079e-05,1.72e-05,0.0,0 STARLINK-5914,1 55941U 23037AD  23151.20870600  .00001720  00000-0  16079-4 0  9991,2 55941  69.9974 331.7788 0003598 274.3127  85.7657 15.69915749 12218,6737.275,91.725,361.564,356.716,0.0
55941.0,STARLINK-5914,PAYLOAD,2023-05-31 14:11:02,15.69921431,0.0003569,69.9978,330.7038,274.5884,85.4904,7.445e-06,6.82e-06,0.0,0 STARLINK-5914,1 55941U 23037AD  23151.59100574  .00000682  00000-0  74450-5 0  9993,2 55941  69.9978 330.7038 0003569 274.5884  85.4904 15.69921431 11934,6737.259,91.724,361.528,356.719,0.0
